GLOBALSTAR M045         
1 25676U 99019A   25115.96329404 -.00000074  00000+0  17132-3 0  9993
2 25676  51.9955  94.1159 0000495  81.1863 312.7257 12.27061306186983
GLOBALSTAR M019         
1 25677U 99019B   25115.66703383 -.00000216  00000+0 -13125-2 0  9999
2 25677  51.9876 221.6319 0001511 191.3936 309.3304 12.13875068178761
GLOBALSTAR M044         
1 25678U 99019C   25115.94587758 -.00000039  00000+0  62048-3 0  9998
2 25678  51.9944 165.6840 0006070 298.5243 120.5381 11.90249122165102
GLOBALSTAR M042         
1 25679U 99019D   25115.96040012 -.00000061  00000+0  29526-3 0  9997
2 25679  52.0004 198.3922 0003246 186.0016 222.3533 12.22081881178877
GLOBALSTAR M025         
1 25770U 99031A   25115.97646735 -.00000077  00000+0 -28982-3 0  9991
2 25770  51.9817 280.2223 0002126  81.0170  99.7277 11.22558017475842
GLOBALSTAR M049         
1 25771U 99031B   25115.85793048 -.00000097  00000+0 -10918-2 0  9990
2 25771  51.9890 312.6315 0001938 283.1332  76.9248 11.12112983111604
GLOBALSTAR M047         
1 25772U 99031C   25115.87125488 -.00000075  00000+0 -15182-3 0  9995
2 25772  51.9848 314.5692 0016605 170.4594 189.6529 11.31927483465181
GLOBALSTAR M052         
1 25773U 99031D   25115.77177708 -.00000097  00000+0 -10331-2 0  9991
2 25773  51.9877  62.2321 0002662  79.9430 284.6132 11.15058805472662
